{
    "links": {
        "self": "http://www.neowsapp.com/rest/v1/neo/3392083?api_key=iIulBulltgU6a56xZRHN4H3l9WmuAYTsLGpBGhQ2"
    },
    "id": "3392083",
    "neo_reference_id": "3392083",
    "name": "(2007 UT65)",
    "designation": "2007 UT65",
    "nasa_jpl_url": "http://ssd.jpl.nasa.gov/sbdb.cgi?sstr=3392083",
    "absolute_magnitude_h": 24.2,
    "estimated_diameter": {
        "kilometers": {
            "estimated_diameter_min": 0.0384197891,
            "estimated_diameter_max": 0.0859092601
        },
        "meters": {
            "estimated_diameter_min": 38.4197891064,
            "estimated_diameter_max": 85.9092601232
        },
        "miles": {
            "estimated_diameter_min": 0.0238729428,
            "estimated_diameter_max": 0.0533815229
        },
        "feet": {
            "estimated_diameter_min": 126.0491808919,
            "estimated_diameter_max": 281.8545369825
        }
    },
    "is_potentially_hazardous_asteroid": false,
    "close_approach_data": [
        {
            "close_approach_date": "2004-12-17",
            "close_approach_date_full": "2004-Dec-17 22:41",
            "epoch_date_close_approach": 1103323260000,
            "relative_velocity": {
                "kilometers_per_second": "10.1445639611",
                "kilometers_per_hour": "36520.4302600342",
                "miles_per_hour": "22692.3751246307"
            },
            "miss_distance": {
                "astronomical": "0.2930955101",
                "lunar": "114.0141534289",
                "kilometers": "43846464.017523487",
                "miles": "27244929.3763266406"
            },
            "orbiting_body": "Earth"
        },
        {
            "close_approach_date": "2007-11-17",
            "close_approach_date_full": "2007-Nov-17 04:13",
            "epoch_date_close_approach": 1195272780000,
            "relative_velocity": {
                "kilometers_per_second": "7.7505446561",
                "kilometers_per_hour": "27901.960761999",
                "miles_per_hour": "17337.1933412543"
            },
            "miss_distance": {
                "astronomical": "0.1131613695",
                "lunar": "44.0197727355",
                "kilometers": "16928699.843482965",
                "miles": "10519006.309936317"
            },
            "orbiting_body": "Earth"
        },
        {
            "close_approach_date": "2010-10-28",
            "close_approach_date_full": "2010-Oct-28 10:24",
            "epoch_date_close_approach": 1288261440000,
            "relative_velocity": {
                "kilometers_per_second": "15.2537137916",
                "kilometers_per_hour": "54913.36964971",
                "miles_per_hour": "34121.0323803989"
            },
            "miss_distance": {
                "astronomical": "0.3525852059",
                "lunar": "137.1556450951",
                "kilometers": "52745995.796151433",
                "miles": "32774841.9981104554"
            },
            "orbiting_body": "Earth"
        },
        {
            "close_approach_date": "2131-10-22",
            "close_approach_date_full": "2131-Oct-22 04:05",
            "epoch_date_close_approach": 5106081900000,
            "relative_velocity": {
                "kilometers_per_second": "18.7871471905",
                "kilometers_per_hour": "67633.7298858864",
                "miles_per_hour": "42024.9695504831"
            },
            "miss_distance": {
                "astronomical": "0.4639837823",
                "lunar": "180.4896913147",
                "kilometers": "69410985.546623701",
                "miles": "43129986.4546250338"
            },
            "orbiting_body": "Earth"
        }
    ],
    "orbital_data": {
        "orbit_id": "9",
        "orbit_determination_date": "2017-04-06 09:05:28",
        "first_observation_date": "2007-10-31",
        "last_observation_date": "2008-01-08",
        "data_arc_in_days": 69,
        "observations_used": 28,
        "orbit_uncertainty": "7",
        "minimum_orbit_intersection": ".110912",
        "jupiter_tisserand_invariant": "3.616",
        "epoch_osculation": "2459000.5",
        "eccentricity": ".481050864845589",
        "semi_major_axis": "2.056943388175406",
        "inclination": "9.867234520534687",
        "ascending_node_longitude": "37.49459554613837",
        "orbital_period": "1077.536364276058",
        "perihelion_distance": "1.067448992355211",
        "perihelion_argument": "35.90328366202483",
        "aphelion_distance": "3.046437783995601",
        "perihelion_time": "2458752.241908506214",
        "mean_anomaly": "82.94189959687179",
        "mean_motion": ".3340954532349966",
        "equinox": "J2000",
        "orbit_class": {
            "orbit_class_type": "AMO",
            "orbit_class_description": "Near-Earth asteroid orbits similar to that of 1221 Amor",
            "orbit_class_range": "1.017 AU < q (perihelion) < 1.3 AU"
        }
    },
    "is_sentry_object": false
}